CCSDS_OMM_VERS = 2.0
CREATION_DATE  = 
ORIGINATOR     = 

OBJECT_NAME    = UNKNOWN
OBJECT_ID      = 
CENTER_NAME    = EARTH
REF_FRAME      = TEME
TIME_SYSTEM    = UTC
MEAN_ELEMENT_THEORY = SGP/SGP4

EPOCH          = 2026-01-26T20:52:07.269312
MEAN_MOTION    = 14.83393449
ECCENTRICITY   = .0010462
INCLINATION    = 98.3935
RA_OF_ASC_NODE = 258.8087
ARG_OF_PERICENTER = 0.8859
MEAN_ANOMALY   = 359.2369

EPHEMERIS_TYPE = 0
CLASSIFICATION_TYPE = U
NORAD_CAT_ID   = 82381
ELEMENT_SET_NO = 999
REV_AT_EPOCH   = 51749
BSTAR          = .49093E-2
MEAN_MOTION_DOT = .40481E-3
MEAN_MOTION_DDOT = 0

CCSDS_OMM_VERS = 2.0
CREATION_DATE  = 
ORIGINATOR     = 

OBJECT_NAME    = UNKNOWN
OBJECT_ID      = 
CENTER_NAME    = EARTH
REF_FRAME      = TEME
TIME_SYSTEM    = UTC
MEAN_ELEMENT_THEORY = SGP/SGP4

EPOCH          = 2026-01-27T06:49:39.916128
MEAN_MOTION    = 15.04262165
ECCENTRICITY   = .0008065
INCLINATION    = 86.6646
RA_OF_ASC_NODE = 135.9305
ARG_OF_PERICENTER = 14.7098
MEAN_ANOMALY   = 345.4370

EPHEMERIS_TYPE = 0
CLASSIFICATION_TYPE = U
NORAD_CAT_ID   = 82402
ELEMENT_SET_NO = 999
REV_AT_EPOCH   = 46131
BSTAR          = .78168E-3
MEAN_MOTION_DOT = .10912E-3
MEAN_MOTION_DDOT = 0

CCSDS_OMM_VERS = 2.0
CREATION_DATE  = 
ORIGINATOR     = 

OBJECT_NAME    = UNKNOWN
OBJECT_ID      = 
CENTER_NAME    = EARTH
REF_FRAME      = TEME
TIME_SYSTEM    = UTC
MEAN_ELEMENT_THEORY = SGP/SGP4

EPOCH          = 2026-01-16T10:23:10.575456
MEAN_MOTION    = 14.58714109
ECCENTRICITY   = .0054449
INCLINATION    = 74.0067
RA_OF_ASC_NODE = 274.4084
ARG_OF_PERICENTER = 69.8652
MEAN_ANOMALY   = 290.8360

EPHEMERIS_TYPE = 0
CLASSIFICATION_TYPE = U
NORAD_CAT_ID   = 82432
ELEMENT_SET_NO = 999
REV_AT_EPOCH   = 48796
BSTAR          = .26452E-3
MEAN_MOTION_DOT = .1229E-4
MEAN_MOTION_DDOT = 0

CCSDS_OMM_VERS = 2.0
CREATION_DATE  = 
ORIGINATOR     = 

OBJECT_NAME    = UNKNOWN
OBJECT_ID      = 
CENTER_NAME    = EARTH
REF_FRAME      = TEME
TIME_SYSTEM    = UTC
MEAN_ELEMENT_THEORY = SGP/SGP4

EPOCH          = 2026-01-27T15:51:04.087872
MEAN_MOTION    = 15.04439479
ECCENTRICITY   = .0010712
INCLINATION    = 85.8734
RA_OF_ASC_NODE = 174.7870
ARG_OF_PERICENTER = 93.6699
MEAN_ANOMALY   = 266.5760

EPHEMERIS_TYPE = 0
CLASSIFICATION_TYPE = U
NORAD_CAT_ID   = 82448
ELEMENT_SET_NO = 999
REV_AT_EPOCH   = 44394
BSTAR          = .77135E-3
MEAN_MOTION_DOT = .10827E-3
MEAN_MOTION_DDOT = 0

CCSDS_OMM_VERS = 2.0
CREATION_DATE  = 
ORIGINATOR     = 

OBJECT_NAME    = UNKNOWN
OBJECT_ID      = 
CENTER_NAME    = EARTH
REF_FRAME      = TEME
TIME_SYSTEM    = UTC
MEAN_ELEMENT_THEORY = SGP/SGP4

EPOCH          = 2026-01-23T12:15:18.644544
MEAN_MOTION    = 13.55815790
ECCENTRICITY   = .0045493
INCLINATION    = 99.3540
RA_OF_ASC_NODE = 47.9830
ARG_OF_PERICENTER = 89.3977
MEAN_ANOMALY   = 271.2374

EPHEMERIS_TYPE = 0
CLASSIFICATION_TYPE = U
NORAD_CAT_ID   = 82484
ELEMENT_SET_NO = 999
REV_AT_EPOCH   = 59629
BSTAR          = .28021E-3
MEAN_MOTION_DOT = .156E-5
MEAN_MOTION_DDOT = 0

CCSDS_OMM_VERS = 2.0
CREATION_DATE  = 
ORIGINATOR     = 

OBJECT_NAME    = UNKNOWN
OBJECT_ID      = 
CENTER_NAME    = EARTH
REF_FRAME      = TEME
TIME_SYSTEM    = UTC
MEAN_ELEMENT_THEORY = SGP/SGP4

EPOCH          = 2026-01-25T17:38:33.909216
MEAN_MOTION    = 14.88040723
ECCENTRICITY   = .0002872
INCLINATION    = 74.0071
RA_OF_ASC_NODE = 294.0663
ARG_OF_PERICENTER = 73.0717
MEAN_ANOMALY   = 287.0778

EPHEMERIS_TYPE = 0
CLASSIFICATION_TYPE = U
NORAD_CAT_ID   = 82494
ELEMENT_SET_NO = 999
REV_AT_EPOCH   = 9150
BSTAR          = .33035E-2
MEAN_MOTION_DOT = .3046E-3
MEAN_MOTION_DDOT = 0

CCSDS_OMM_VERS = 2.0
CREATION_DATE  = 
ORIGINATOR     = 

OBJECT_NAME    = UNKNOWN
OBJECT_ID      = 
CENTER_NAME    = EARTH
REF_FRAME      = TEME
TIME_SYSTEM    = UTC
MEAN_ELEMENT_THEORY = SGP/SGP4

EPOCH          = 2026-01-17T00:25:34.379328
MEAN_MOTION    = 14.18787304
ECCENTRICITY   = .0115367
INCLINATION    = 70.9668
RA_OF_ASC_NODE = 289.1757
ARG_OF_PERICENTER = 61.1040
MEAN_ANOMALY   = 300.1600

EPHEMERIS_TYPE = 0
CLASSIFICATION_TYPE = U
NORAD_CAT_ID   = 82500
ELEMENT_SET_NO = 999
REV_AT_EPOCH   = 62395
BSTAR          = .16322E-2
MEAN_MOTION_DOT = .358E-4
MEAN_MOTION_DDOT = 0

CCSDS_OMM_VERS = 2.0
CREATION_DATE  = 
ORIGINATOR     = 

OBJECT_NAME    = UNKNOWN
OBJECT_ID      = 
CENTER_NAME    = EARTH
REF_FRAME      = TEME
TIME_SYSTEM    = UTC
MEAN_ELEMENT_THEORY = SGP/SGP4

EPOCH          = 2026-01-25T15:28:46.761024
MEAN_MOTION    = 14.35586640
ECCENTRICITY   = .013557
INCLINATION    = 73.2826
RA_OF_ASC_NODE = 97.5230
ARG_OF_PERICENTER = 225.0852
MEAN_ANOMALY   = 289.2237

EPHEMERIS_TYPE = 0
CLASSIFICATION_TYPE = U
NORAD_CAT_ID   = 82524
ELEMENT_SET_NO = 999
REV_AT_EPOCH   = 58333
BSTAR          = .46701E-2
MEAN_MOTION_DOT = .14939E-3
MEAN_MOTION_DDOT = 0

CCSDS_OMM_VERS = 2.0
CREATION_DATE  = 
ORIGINATOR     = 

OBJECT_NAME    = UNKNOWN
OBJECT_ID      = 
CENTER_NAME    = EARTH
REF_FRAME      = TEME
TIME_SYSTEM    = UTC
MEAN_ELEMENT_THEORY = SGP/SGP4

EPOCH          = 2026-01-23T00:36:19.107360
MEAN_MOTION    = 13.41152401
ECCENTRICITY   = .0239419
INCLINATION    = 99.7855
RA_OF_ASC_NODE = 110.1163
ARG_OF_PERICENTER = 140.1937
MEAN_ANOMALY   = 33.5886

EPHEMERIS_TYPE = 0
CLASSIFICATION_TYPE = U
NORAD_CAT_ID   = 82529
ELEMENT_SET_NO = 999
REV_AT_EPOCH   = 59527
BSTAR          = .93043E-3
MEAN_MOTION_DOT = .569E-5
MEAN_MOTION_DDOT = 0

